{
  "type": "Feature",
  "properties": {
    "region_id": "peaks-of-otter",
    "name": "Peaks of Otter (Blue Ridge Parkway, Bedford)",
    "region_label": "Peaks of Otter",
    "description": "The Peaks of Otter recreation area on the Blue Ridge Parkway in Bedford County, central Virginia: Sharp Top, Flat Top and Harkening Hill above Abbott Lake and the Peaks of Otter Lodge (~Parkway milepost 86), with the Appalachian Trail and Parkway spur trails threading the ridge north toward Buchanan. Classic Blue Ridge summit hikes — steep rocky climbs with real elevation profiles.",
    "bbox": [-79.75, 37.32, -79.5, 37.55],
    "bbox_comment": "[west, south, east, north] in decimal degrees (WGS84)",
    "sources": ["OSM", "USGS"],
    "area_ids": ["nps:blue-ridge-parkway", "nps:peaks-of-otter"],
    "origins_comment": "Named search origins the frontend picker offers for this region (Phase 2: config-driven — adding/removing an origin is a config edit, not a frontend deploy). key is the wire/UI identifier; lat/lon WGS84.",
    "origins": [
      {"key": "peaksOfOtter", "label": "Peaks of Otter", "lat": 37.4467, "lon": -79.6067},
      {"key": "bedford", "label": "Bedford", "lat": 37.3343, "lon": -79.5231},
      {"key": "buchanan", "label": "Buchanan", "lat": 37.5271, "lon": -79.68}
    ],
    "min_fetch_counts_comment": "Per-source raw-fetch floors (a source fetching below its floor aborts the run BEFORE any load/prune — a truncated/partial fetch can't self-wipe). Keys match registry source names (only OSM fetches geometry here; USGS is 3DEP elevation enrichment, which never fetches). NOT live-measured in this config-only lane — set to a deliberately conservative low floor so it catches gross truncation without false-tripping; recalibrate to ~70% of the measured live Overpass baseline on first ingest. Env-overridable via ADVENTURE_FETCH_MIN_OSM.",
    "min_fetch_counts": {"osm": 40}
  },
  "geometry": {
    "type": "Polygon",
    "coordinates": [
      [
        [-79.75, 37.32],
        [-79.5, 37.32],
        [-79.5, 37.55],
        [-79.75, 37.55],
        [-79.75, 37.32]
      ]
    ]
  }
}
