{
  "type": "Feature",
  "properties": {
    "region_id": "prince-william-forest",
    "name": "Prince William Forest Park (Northern Virginia)",
    "region_label": "Prince William Forest",
    "description": "Prince William Forest Park — the largest protected natural area in the Washington, D.C. metro (~15,000 acres of Quantico Creek piedmont forest) near Triangle and Dumfries, Virginia. An NPS unit roughly bounded by Route 619 (south/west), Route 234 (north) and Interstate 95 (east), with ~37 miles of hiking trails and old CCC cabin camps. This region ships the park's REAL NPS boundary polygon, so the Phase-2 spatial curation is active: OSM ways whose representative point falls outside the park (I-95 frontage, Triangle/Dumfries streets, private inholdings) are soft-demoted, never dropped.",
    "bbox": [-77.46, 38.53, -77.3, 38.66],
    "bbox_comment": "[west, south, east, north] in decimal degrees (WGS84). Slightly larger than the park polygon so surrounding non-park OSM ways are present for the boundary classifier to soft-demote.",
    "sources": ["OSM", "NPS", "USGS"],
    "area_ids": ["nps:prwi"],
    "origins_comment": "Named search origins the frontend picker offers for this region (Phase 2: config-driven — adding/removing an origin is a config edit, not a frontend deploy). key is the wire/UI identifier; lat/lon WGS84.",
    "origins": [
      {"key": "triangle", "label": "Triangle", "lat": 38.5482, "lon": -77.3364},
      {"key": "dumfries", "label": "Dumfries", "lat": 38.5676, "lon": -77.3277},
      {"key": "montclair", "label": "Montclair", "lat": 38.61, "lon": -77.3392},
      {"key": "independentHill", "label": "Independent Hill", "lat": 38.6351, "lon": -77.4158}
    ],
    "min_fetch_counts_comment": "Per-source raw-fetch floors (a source fetching below its floor aborts the run BEFORE any load/prune — a truncated/partial fetch can't self-wipe). Only OSM (geometry) is floor-gated here; NPS/USGS are enrichment (USGS is 3DEP elevation and never fetches). This floor is a CONSERVATIVE pre-calibration estimate — this config-only lane cannot run a live Overpass fetch, so unlike the pilot regions there is no measured baseline yet. Recalibrate to ~70% of the measured live baseline after the first successful ingest. Env-overridable via ADVENTURE_FETCH_MIN_OSM.",
    "min_fetch_counts": {"osm": 200}
  },
  "geometry": {
    "type": "Polygon",
    "coordinates": [
      [
        [-77.437677, 38.625681],
        [-77.436888, 38.627965],
        [-77.4368, 38.633116],
        [-77.435648, 38.633766],
        [-77.432441, 38.631005],
        [-77.431322, 38.633829],
        [-77.429667, 38.633502],
        [-77.430433, 38.630563],
        [-77.429481, 38.629398],
        [-77.426921, 38.629358],
        [-77.426765, 38.628602],
        [-77.427368, 38.626239],
        [-77.424483, 38.623],
        [-77.417306, 38.624824],
        [-77.416428, 38.627713],
        [-77.415652, 38.628002],
        [-77.410455, 38.626538],
        [-77.407922, 38.623402],
        [-77.406998, 38.625166],
        [-77.40489, 38.623955],
        [-77.405223, 38.623249],
        [-77.404132, 38.622981],
        [-77.405446, 38.619748],
        [-77.404229, 38.619436],
        [-77.402963, 38.62226],
        [-77.402019, 38.621893],
        [-77.401965, 38.621223],
        [-77.401568, 38.621338],
        [-77.401391, 38.621837],
        [-77.399344, 38.620647],
        [-77.399336, 38.620309],
        [-77.399921, 38.620683],
        [-77.400508, 38.620461],
        [-77.401439, 38.619511],
        [-77.400896, 38.61891],
        [-77.399411, 38.619888],
        [-77.399097, 38.620492],
        [-77.395763, 38.61856],
        [-77.390152, 38.613694],
        [-77.38784, 38.613031],
        [-77.384056, 38.612664],
        [-77.384614, 38.612429],
        [-77.385617, 38.61072],
        [-77.382375, 38.611448],
        [-77.38232, 38.61248],
        [-77.368442, 38.611145],
        [-77.355916, 38.605608],
        [-77.350088, 38.604238],
        [-77.350854, 38.601668],
        [-77.349954, 38.601987],
        [-77.345967, 38.598058],
        [-77.342486, 38.599397],
        [-77.343413, 38.601094],
        [-77.342292, 38.602521],
        [-77.339268, 38.600671],
        [-77.337354, 38.598604],
        [-77.336874, 38.598496],
        [-77.33565, 38.596883],
        [-77.334823, 38.5955],
        [-77.334639, 38.594091],
        [-77.339198, 38.594023],
        [-77.341483, 38.597704],
        [-77.34206, 38.597409],
        [-77.341942, 38.596749],
        [-77.342424, 38.596938],
        [-77.344724, 38.59508],
        [-77.344061, 38.594064],
        [-77.344531, 38.593861],
        [-77.345053, 38.592655],
        [-77.344416, 38.59197],
        [-77.345079, 38.590144],
        [-77.343282, 38.588336],
        [-77.340208, 38.588629],
        [-77.337427, 38.590215],
        [-77.335338, 38.586535],
        [-77.338178, 38.586002],
        [-77.339239, 38.582773],
        [-77.33863, 38.582527],
        [-77.333269, 38.584122],
        [-77.33115, 38.579696],
        [-77.330808, 38.579696],
        [-77.330653, 38.578431],
        [-77.337143, 38.575835],
        [-77.341002, 38.581849],
        [-77.344664, 38.58076],
        [-77.345382, 38.581929],
        [-77.345306, 38.582347],
        [-77.347475, 38.585336],
        [-77.347733, 38.582479],
        [-77.34703, 38.580067],
        [-77.353597, 38.580332],
        [-77.352466, 38.578591],
        [-77.346593, 38.578511],
        [-77.347326, 38.576206],
        [-77.34733, 38.575031],
        [-77.346554, 38.574149],
        [-77.346391, 38.573283],
        [-77.346931, 38.571853],
        [-77.34644, 38.57086],
        [-77.342364, 38.569484],
        [-77.341977, 38.568343],
        [-77.342235, 38.567605],
        [-77.339691, 38.566551],
        [-77.337735, 38.567116],
        [-77.33565, 38.568745],
        [-77.335457, 38.568555],
        [-77.337428, 38.566196],
        [-77.339596, 38.561501],
        [-77.340231, 38.560775],
        [-77.342842, 38.55275],
        [-77.345241, 38.553951],
        [-77.34603, 38.554702],
        [-77.346411, 38.555619],
        [-77.345884, 38.555962],
        [-77.34741, 38.5572],
        [-77.34784, 38.556576],
        [-77.346866, 38.555382],
        [-77.346461, 38.555593],
        [-77.3461, 38.554776],
        [-77.346674, 38.554893],
        [-77.348195, 38.554342],
        [-77.348164, 38.552839],
        [-77.348449, 38.552767],
        [-77.34849, 38.551865],
        [-77.349498, 38.55176],
        [-77.349476, 38.554218],
        [-77.350085, 38.556328],
        [-77.351453, 38.557243],
        [-77.352276, 38.557403],
        [-77.352534, 38.557181],
        [-77.354954, 38.558681],
        [-77.358053, 38.557422],
        [-77.357933, 38.557215],
        [-77.359837, 38.556637],
        [-77.361173, 38.557625],
        [-77.366165, 38.555658],
        [-77.365907, 38.555389],
        [-77.366889, 38.555047],
        [-77.367191, 38.555353],
        [-77.366791, 38.555612],
        [-77.367045, 38.556128],
        [-77.367616, 38.556018],
        [-77.369067, 38.557591],
        [-77.372073, 38.558945],
        [-77.371014, 38.559953],
        [-77.371443, 38.560465],
        [-77.378404, 38.562152],
        [-77.378829, 38.561931],
        [-77.378986, 38.56101],
        [-77.380385, 38.561045],
        [-77.379048, 38.562041],
        [-77.38049, 38.563119],
        [-77.380223, 38.563685],
        [-77.381504, 38.564065],
        [-77.381307, 38.564724],
        [-77.382352, 38.564948],
        [-77.383373, 38.563285],
        [-77.387188, 38.566433],
        [-77.390883, 38.567709],
        [-77.392924, 38.563805],
        [-77.384698, 38.561072],
        [-77.387735, 38.558337],
        [-77.390246, 38.553308],
        [-77.389193, 38.548498],
        [-77.388329, 38.547246],
        [-77.387617, 38.544328],
        [-77.390102, 38.539774],
        [-77.390541, 38.537552],
        [-77.391141, 38.536793],
        [-77.391419, 38.537656],
        [-77.392328, 38.538367],
        [-77.391781, 38.5391],
        [-77.392038, 38.540004],
        [-77.391471, 38.540899],
        [-77.392508, 38.540163],
        [-77.393623, 38.54104],
        [-77.39481, 38.54114],
        [-77.394596, 38.541627],
        [-77.3951, 38.54167],
        [-77.395589, 38.543006],
        [-77.394949, 38.543213],
        [-77.394221, 38.54301],
        [-77.394259, 38.543339],
        [-77.393406, 38.543439],
        [-77.393631, 38.543652],
        [-77.39333, 38.544111],
        [-77.393909, 38.544278],
        [-77.394546, 38.546047],
        [-77.395111, 38.545755],
        [-77.396839, 38.547728],
        [-77.39873, 38.548164],
        [-77.400081, 38.548063],
        [-77.40099, 38.547249],
        [-77.400883, 38.548273],
        [-77.401334, 38.548558],
        [-77.401136, 38.548904],
        [-77.401441, 38.549198],
        [-77.403347, 38.549209],
        [-77.404989, 38.548674],
        [-77.408663, 38.549324],
        [-77.411697, 38.550904],
        [-77.412723, 38.550876],
        [-77.417129, 38.549519],
        [-77.419773, 38.549452],
        [-77.421461, 38.548608],
        [-77.422557, 38.548647],
        [-77.422368, 38.549918],
        [-77.423609, 38.556731],
        [-77.425725, 38.560278],
        [-77.426051, 38.561575],
        [-77.425807, 38.563903],
        [-77.42608, 38.56773],
        [-77.424632, 38.571728],
        [-77.423971, 38.574895],
        [-77.427963, 38.57943],
        [-77.427469, 38.581811],
        [-77.428992, 38.583975],
        [-77.429293, 38.584898],
        [-77.42925, 38.585669],
        [-77.428628, 38.586776],
        [-77.426289, 38.58998],
        [-77.425409, 38.598231],
        [-77.42277, 38.600445],
        [-77.422619, 38.605995],
        [-77.422813, 38.606465],
        [-77.424443, 38.607504],
        [-77.426825, 38.608578],
        [-77.42852, 38.610992],
        [-77.430387, 38.612451],
        [-77.432404, 38.613473],
        [-77.429478, 38.617921],
        [-77.430812, 38.618519],
        [-77.433621, 38.614977],
        [-77.435102, 38.617001],
        [-77.435681, 38.618355],
        [-77.436453, 38.620849],
        [-77.436883, 38.62367],
        [-77.437677, 38.625681]
      ]
    ]
  }
}
