{
  "type": "Feature",
  "properties": {
    "region_id": "richmond",
    "name": "Richmond Metro (Central Virginia)",
    "description": "Richmond, Virginia and its close-in outdoors: the James River Park System threading the city (Belle Isle, Buttermilk, North Bank, Forest Hill), Pocahontas State Park to the south, Powhatan State Park to the west, and the James River riverfront east to Deep Bottom. Urban-fringe terrain — river-gorge singletrack, floodplain and piedmont-forest trails. A first cut centered on the metro; the bbox can widen later to reach Pocahontas/Powhatan more fully or add the upper James.",
    "bbox": [-78.0, 37.2, -77.0, 37.9],
    "bbox_comment": "[west, south, east, north] in decimal degrees (WGS84)",
    "sources": ["OSM", "USGS"],
    "area_ids": ["va:pocahontas-sp", "va:powhatan-sp", "local:james-river-park-system"]
  },
  "geometry": {
    "type": "Polygon",
    "coordinates": [
      [
        [-78.0, 37.2],
        [-77.0, 37.2],
        [-77.0, 37.9],
        [-78.0, 37.9],
        [-78.0, 37.2]
      ]
    ]
  }
}
