{
  "type": "Feature",
  "properties": {
    "region_id": "shenandoah-gwj",
    "name": "Shenandoah + GWJ National Forest (Pilot Region)",
    "region_label": "Shenandoah",
    "description": "Pilot ingestion region: Shenandoah National Park + George Washington & Jefferson National Forest (Lee, Massanutten, Deerfield Ranger Districts). Covers the northern Appalachian spine from Waynesboro VA north to Front Royal VA.",
    "bbox": [-79.4, 37.8, -78.0, 39.1],
    "bbox_comment": "[west, south, east, north] in decimal degrees (WGS84)",
    "sources": ["OSM", "USFS", "NPS"],
    "area_ids": ["nps:shen", "usfs:gwj-lee", "usfs:gwj-massanutten"],
    "origins_comment": "Named search origins the frontend picker offers for this region (Phase 2: config-driven — adding/removing an origin is a config edit, not a frontend deploy). key is the wire/UI identifier; lat/lon WGS84.",
    "origins": [
      {"key": "frontRoyal", "label": "Front Royal", "lat": 38.918, "lon": -78.194},
      {"key": "luray", "label": "Luray", "lat": 38.665, "lon": -78.459},
      {"key": "charlottesville", "label": "Charlottesville", "lat": 38.029, "lon": -78.477}
    ],
    "min_fetch_counts_comment": "Per-source raw-fetch floors (a source fetching below its floor aborts the run BEFORE any load/prune — a truncated/partial fetch can't self-wipe). Keys match registry source names; calibrated to ~70% of the measured live Overpass baseline for this region's bbox (2026-07-03: 2419 named ways), so the gate catches gross truncation without false-tripping on ordinary OSM churn. Env-overridable per source via ADVENTURE_FETCH_MIN_<SOURCE>.",
    "min_fetch_counts": {"osm": 1693, "usfs": 25, "nps": 25}
  },
  "geometry": {
    "type": "MultiPolygon",
    "coordinates": [
      [
        [
          [-78.854588, 38.038598],
          [-78.843612, 38.049676],
          [-78.823153, 38.061587],
          [-78.821127, 38.061976],
          [-78.809119, 38.057367],
          [-78.80101, 38.063758],
          [-78.792491, 38.062597],
          [-78.802753, 38.077732],
          [-78.789561, 38.089892],
          [-78.783388, 38.092444],
          [-78.833744, 38.108079],
          [-78.792012, 38.154739],
          [-78.814261, 38.167124],
          [-78.785444, 38.232055],
          [-78.80887, 38.229691],
          [-78.809827, 38.252536],
          [-78.770319, 38.256835],
          [-78.731202, 38.31313],
          [-78.708694, 38.306452],
          [-78.712565, 38.320977],
          [-78.672137, 38.332776],
          [-78.627384, 38.377385],
          [-78.624712, 38.367638],
          [-78.602186, 38.371454],
          [-78.624321, 38.378975],
          [-78.599579, 38.395325],
          [-78.591134, 38.36464],
          [-78.622949, 38.359257],
          [-78.633932, 38.318279],
          [-78.559192, 38.344133],
          [-78.585664, 38.362203],
          [-78.531273, 38.378632],
          [-78.540273, 38.396627],
          [-78.524104, 38.407419],
          [-78.553824, 38.422248],
          [-78.530028, 38.436428],
          [-78.501916, 38.41484],
          [-78.480607, 38.457526],
          [-78.501596, 38.466356],
          [-78.481741, 38.477487],
          [-78.528794, 38.495126],
          [-78.550452, 38.469204],
          [-78.577579, 38.531391],
          [-78.461896, 38.495493],
          [-78.473119, 38.518987],
          [-78.419181, 38.576281],
          [-78.40759, 38.565961],
          [-78.402581, 38.608288],
          [-78.333882, 38.645784],
          [-78.36504, 38.658497],
          [-78.338197, 38.66676],
          [-78.349314, 38.673859],
          [-78.328228, 38.694952],
          [-78.374955, 38.677621],
          [-78.399383, 38.692089],
          [-78.392163, 38.719605],
          [-78.380705, 38.710416],
          [-78.326978, 38.758496],
          [-78.358788, 38.773086],
          [-78.349612, 38.793681],
          [-78.320112, 38.820577],
          [-78.319879, 38.798717],
          [-78.268117, 38.804831],
          [-78.2677, 38.773188],
          [-78.214649, 38.782397],
          [-78.191031, 38.806572],
          [-78.220035, 38.876381],
          [-78.190262, 38.906523],
          [-78.170513, 38.887633],
          [-78.197579, 38.850654],
          [-78.15006, 38.84613],
          [-78.15116, 38.804957],
          [-78.173382, 38.785559],
          [-78.155474, 38.751636],
          [-78.257476, 38.745914],
          [-78.241817, 38.707945],
          [-78.281895, 38.692249],
          [-78.248807, 38.674142],
          [-78.2723, 38.653385],
          [-78.250399, 38.646732],
          [-78.268588, 38.595303],
          [-78.300563, 38.576201],
          [-78.281645, 38.537641],
          [-78.316973, 38.50708],
          [-78.342045, 38.510624],
          [-78.345405, 38.549591],
          [-78.363119, 38.506575],
          [-78.407657, 38.50956],
          [-78.420788, 38.478868],
          [-78.395458, 38.461218],
          [-78.36663, 38.47619],
          [-78.357163, 38.445292],
          [-78.383811, 38.440336],
          [-78.384752, 38.421764],
          [-78.430756, 38.472275],
          [-78.44352, 38.465927],
          [-78.43358, 38.42865],
          [-78.463659, 38.428998],
          [-78.433581, 38.428642],
          [-78.442514, 38.406999],
          [-78.488724, 38.384951],
          [-78.503974, 38.391148],
          [-78.502576, 38.357895],
          [-78.476088, 38.360721],
          [-78.515319, 38.32606],
          [-78.59273, 38.317603],
          [-78.626915, 38.275743],
          [-78.649288, 38.276291],
          [-78.624947, 38.264708],
          [-78.639695, 38.239901],
          [-78.680388, 38.233133],
          [-78.704509, 38.196161],
          [-78.726894, 38.218186],
          [-78.742501, 38.186807],
          [-78.733087, 38.150371],
          [-78.757568, 38.136677],
          [-78.773623, 38.10666],
          [-78.771758, 38.095289],
          [-78.801878, 38.077812],
          [-78.791762, 38.062444],
          [-78.854588, 38.038598]
        ],
        [
          [-78.48591, 38.388628],
          [-78.485965, 38.389001],
          [-78.486126, 38.388703],
          [-78.48591, 38.388628]
        ]
      ],
      [
        [
          [-78.743525, 38.479302],
          [-78.702197, 38.539152],
          [-78.695203, 38.585228],
          [-78.641136, 38.644749],
          [-78.601476, 38.754025],
          [-78.540866, 38.816641],
          [-78.548419, 38.830603],
          [-78.492914, 38.839295],
          [-78.346638, 38.97377],
          [-78.293877, 38.950711],
          [-78.308923, 38.853014],
          [-78.354033, 38.847709],
          [-78.344978, 38.831935],
          [-78.365319, 38.823179],
          [-78.350605, 38.806246],
          [-78.386589, 38.806854],
          [-78.37402, 38.783742],
          [-78.409351, 38.789153],
          [-78.38333, 38.771752],
          [-78.422202, 38.775346],
          [-78.412163, 38.754893],
          [-78.439399, 38.729613],
          [-78.502885, 38.723726],
          [-78.590706, 38.634765],
          [-78.65605, 38.467016],
          [-78.74588, 38.406704],
          [-78.7283, 38.445593],
          [-78.743525, 38.479302]
        ]
      ],
      [
        [
          [-78.378533, 38.666732],
          [-78.365805, 38.664235],
          [-78.380888, 38.659173],
          [-78.378533, 38.666732]
        ]
      ],
      [
        [
          [-79.23624, 38.208079],
          [-79.237475, 38.19417],
          [-79.265242, 38.197618],
          [-79.248784, 38.183111],
          [-79.309139, 38.108041],
          [-79.4, 38.097321],
          [-79.4, 38.326663],
          [-79.364068, 38.356127],
          [-79.357103, 38.382271],
          [-79.367626, 38.354116],
          [-79.382504, 38.361615],
          [-79.4, 38.338933],
          [-79.397572, 38.390744],
          [-79.365677, 38.400008],
          [-79.37545, 38.4174],
          [-79.358762, 38.407046],
          [-79.353731, 38.40883],
          [-79.369403, 38.432905],
          [-79.328802, 38.476872],
          [-79.327872, 38.503778],
          [-79.254081, 38.589532],
          [-79.24534, 38.630446],
          [-79.224236, 38.629355],
          [-79.210208, 38.664213],
          [-79.151658, 38.707777],
          [-79.108615, 38.796105],
          [-79.057375, 38.761338],
          [-79.055022, 38.785583],
          [-79.027435, 38.79262],
          [-78.99398, 38.850203],
          [-78.894987, 38.781979],
          [-78.803994, 38.953763],
          [-78.787367, 38.945686],
          [-78.7105, 39.040455],
          [-78.651235, 39.080203],
          [-78.568633, 39.055116],
          [-78.538104, 39.091823],
          [-78.556418, 39.1],
          [-78.448865, 39.09753],
          [-78.456011, 39.069649],
          [-78.496034, 39.04447],
          [-78.494244, 39.004208],
          [-78.474524, 38.985683],
          [-78.594645, 38.927709],
          [-78.676565, 38.859092],
          [-78.70719, 38.882839],
          [-78.754517, 38.871667],
          [-78.84037, 38.761912],
          [-78.819776, 38.70453],
          [-78.838105, 38.689126],
          [-78.828542, 38.678393],
          [-78.869295, 38.659482],
          [-78.945751, 38.675298],
          [-78.938992, 38.600457],
          [-78.906779, 38.627894],
          [-78.880372, 38.61446],
          [-79.015146, 38.50873],
          [-79.043048, 38.501984],
          [-79.043112, 38.520277],
          [-79.087765, 38.567084],
          [-79.071565, 38.574978],
          [-79.130852, 38.596388],
          [-79.096713, 38.611162],
          [-79.135522, 38.609206],
          [-79.138416, 38.596556],
          [-79.113984, 38.579222],
          [-79.13008, 38.580931],
          [-79.126571, 38.577209],
          [-79.144489, 38.570138],
          [-79.162443, 38.548258],
          [-79.124866, 38.574877],
          [-79.092364, 38.566916],
          [-79.043168, 38.49081],
          [-79.069375, 38.48415],
          [-79.088721, 38.447651],
          [-79.122997, 38.447938],
          [-79.128938, 38.439548],
          [-79.100274, 38.435614],
          [-79.119661, 38.424966],
          [-79.132963, 38.360569],
          [-79.160275, 38.363974],
          [-79.147081, 38.384757],
          [-79.158641, 38.393402],
          [-79.16473, 38.316996],
          [-79.196768, 38.296335],
          [-79.17549, 38.297956],
          [-79.208968, 38.247964],
          [-79.236035, 38.238865],
          [-79.219632, 38.231117],
          [-79.2369, 38.234823],
          [-79.23624, 38.208079]
        ],
        [
          [-79.133497, 38.520382],
          [-79.132542, 38.522216],
          [-79.13355, 38.522707],
          [-79.133497, 38.520382]
        ],
        [
          [-79.13421, 38.529577],
          [-79.136903, 38.526144],
          [-79.132612, 38.52554],
          [-79.13421, 38.529577]
        ],
        [
          [-79.134141, 38.523937],
          [-79.135948, 38.525112],
          [-79.136029, 38.52366],
          [-79.134141, 38.523937]
        ],
        [
          [-79.244477, 38.199424],
          [-79.256467, 38.208568],
          [-79.261466, 38.205463],
          [-79.244477, 38.199424]
        ],
        [
          [-79.320111, 38.407173],
          [-79.320233, 38.407546],
          [-79.320404, 38.407254],
          [-79.320111, 38.407173]
        ],
        [
          [-79.33384, 38.417733],
          [-79.344354, 38.397358],
          [-79.332134, 38.409806],
          [-79.33384, 38.417733]
        ],
        [
          [-79.381635, 38.382217],
          [-79.388046, 38.383616],
          [-79.385151, 38.376608],
          [-79.381635, 38.382217]
        ]
      ],
      [
        [
          [-78.757746, 38.122256],
          [-78.754544, 38.133329],
          [-78.750102, 38.131561],
          [-78.757746, 38.122256]
        ]
      ],
      [
        [
          [-79.33399, 37.800467],
          [-79.158689, 37.933841],
          [-79.129395, 37.996647],
          [-79.065286, 38.017163],
          [-78.953179, 37.980522],
          [-78.909299, 38.043456],
          [-78.874745, 38.018334],
          [-78.902742, 37.989153],
          [-78.83916, 37.9816],
          [-78.83941, 37.918994],
          [-78.85949, 37.899495],
          [-78.911926, 37.869493],
          [-78.948398, 37.873865],
          [-78.9629, 37.84226],
          [-79.044571, 37.8],
          [-79.33399, 37.800467]
        ]
      ],
      [
        [
          [-79.4, 38.08097],
          [-79.397582, 38.079894],
          [-79.4, 38.078842],
          [-79.4, 38.08097]
        ]
      ]
    ]
  }
}
