{
  "type": "Feature",
  "properties": {
    "region_id": "sky-meadows",
    "name": "Sky Meadows State Park (Northern Piedmont)",
    "region_label": "Sky Meadows",
    "description": "Sky Meadows State Park near Paris and Delaplane in Fauquier County, at the foot of the northern Blue Ridge in Virginia's northern Piedmont. Rolling pasture-and-forest trails (Piedmont, North Ridge, Ambassador Whitehouse) climb from the historic Mount Bleak farmstead to the ridgeline, where a spur connects to the Appalachian Trail. Open-meadow-to-forest hiking with moderate ridge elevation.",
    "bbox": [-77.98, 38.9, -77.86, 39.06],
    "bbox_comment": "[west, south, east, north] in decimal degrees (WGS84)",
    "sources": ["OSM", "USGS"],
    "area_ids": ["va:sky-meadows-sp", "nps:appalachian-trail"],
    "origins_comment": "Named search origins the frontend picker offers for this region (Phase 2: config-driven — adding/removing an origin is a config edit, not a frontend deploy). key is the wire/UI identifier; lat/lon WGS84.",
    "origins": [
      {"key": "skyMeadows", "label": "Sky Meadows State Park", "lat": 38.9944, "lon": -77.9678},
      {"key": "paris", "label": "Paris", "lat": 39.0093, "lon": -77.9558},
      {"key": "delaplane", "label": "Delaplane", "lat": 38.9179, "lon": -77.933}
    ],
    "min_fetch_counts_comment": "Per-source raw-fetch floors (a source fetching below its floor aborts the run BEFORE any load/prune — a truncated/partial fetch can't self-wipe). Keys match registry source names (only OSM fetches geometry here; USGS is 3DEP elevation enrichment, which never fetches). NOT live-measured in this config-only lane — set to a deliberately conservative low floor so it catches gross truncation without false-tripping; recalibrate to ~70% of the measured live Overpass baseline on first ingest. Env-overridable via ADVENTURE_FETCH_MIN_OSM.",
    "min_fetch_counts": {"osm": 25}
  },
  "geometry": {
    "type": "Polygon",
    "coordinates": [
      [
        [-77.98, 38.9],
        [-77.86, 38.9],
        [-77.86, 39.06],
        [-77.98, 39.06],
        [-77.98, 38.9]
      ]
    ]
  }
}
