{
  "type": "Feature",
  "properties": {
    "region_id": "st-john-usvi",
    "name": "St. John \u2014 Virgin Islands National Park (USVI)",
    "region_label": "St. John",
    "description": "The island of St. John in the US Virgin Islands, roughly 60% of which is Virgin Islands National Park: the Reef Bay Trail dropping from Centerline Road past petroglyphs to the south-shore sugar-mill ruins, the Ram Head Trail to the exposed southern headland, Lind Point above Cruz Bay, the Cinnamon Bay loop and self-guiding trail, and the Johnny Horn and Bordeaux Mountain routes above Coral Bay. Steep dry-tropical-forest hills rising to ~1,280 ft \u2014 the first region outside the continental US; USGS 3DEP 1/3-arc-second coverage extends to the USVI (tile n19w065), so elevation enrichment works unchanged.",
    "bbox": [
      -64.81,
      18.29,
      -64.64,
      18.39
    ],
    "bbox_comment": "[west, south, east, north] in decimal degrees (WGS84)",
    "sources": [
      "OSM",
      "NPS",
      "USGS"
    ],
    "area_ids": [
      "nps:viis"
    ],
    "origins_comment": "Named search origins the frontend picker offers for this region (Phase 2: config-driven \u2014 adding/removing an origin is a config edit, not a frontend deploy). key is the wire/UI identifier; lat/lon WGS84.",
    "origins": [
      {
        "key": "cruzBay",
        "label": "Cruz Bay",
        "lat": 18.3314,
        "lon": -64.7936
      },
      {
        "key": "cinnamonBay",
        "label": "Cinnamon Bay",
        "lat": 18.3547,
        "lon": -64.7566
      },
      {
        "key": "coralBay",
        "label": "Coral Bay",
        "lat": 18.3462,
        "lon": -64.7106
      }
    ],
    "min_fetch_counts_comment": "Per-source raw-fetch floors (a source fetching below its floor aborts the run BEFORE any load/prune \u2014 a truncated/partial fetch can't self-wipe). Keys match registry source names (only OSM fetches geometry here; USGS is 3DEP elevation enrichment, which never fetches). NOT live-measured in this config-only lane \u2014 set to a deliberately conservative low floor so it catches gross truncation without false-tripping; recalibrate to ~70% of the measured live Overpass baseline on first ingest. Env-overridable via ADVENTURE_FETCH_MIN_OSM.",
    "min_fetch_counts": {
      "osm": 15
    }
  },
  "geometry": {
    "type": "Polygon",
    "coordinates": [
      [
        [
          -64.81,
          18.29
        ],
        [
          -64.64,
          18.29
        ],
        [
          -64.64,
          18.39
        ],
        [
          -64.81,
          18.39
        ],
        [
          -64.81,
          18.29
        ]
      ]
    ]
  }
}